STARLINK-31652          
1 59256U 24050C   26068.58307281 -.00000885  00000+0 -17742-4 0  9991
2 59256  53.1594 181.3932 0001429 101.9598 258.1563 15.30210485110531
TRANSPORTER-12 OBJECT AZ
1 62656U 25009AZ  26068.71026235  .00016057  00000+0  54903-3 0  9991
2 62656  97.3981 151.9913 0000987  45.3581 314.7740 15.30349724 63792
